{"type": "FeatureCollection", "features": [{"type": "Feature", "properties": {"norad_id": 24946, "name": "IRIDIUM 33", "group": "iridium-33-debris", "lat": 64.99181970979699, "lon": -115.16810444790545, "alt_km": 771.3155395651893, "timestamp": "2025-12-02T06:27:53.396447+00:00", "meta": {"OBJECT_NAME": "IRIDIUM 33", "OBJECT_ID": "1997-051C", "EPOCH": "2025-12-01T19:53:25.969056", "MEAN_MOTION": 14.35023852, "ECCENTRICITY": 0.0006013, "INCLINATION": 86.3871, "RA_OF_ASC_NODE": 72.801, "ARG_OF_PERICENTER": 243.0633, "MEAN_ANOMALY": 116.995, "EPHEMERIS_TYPE": 0, "CLASSIFICATION_TYPE": "U", "NORAD_CAT_ID": 24946, "ELEMENT_SET_NO": 999, "REV_AT_EPOCH": 47678, "BSTAR": 0.00013699, "MEAN_MOTION_DOT": 4.1e-06, "MEAN_MOTION_DDOT": 0}, "tle": {"line1": "1 24946U 97051C   25335.82877279  .00000410  00000+0  13699-3 0  9990", "line2": "2 24946  86.3871  72.8010 0006013 243.0633 116.9950 14.35023852476785"}}, "geometry": {"type": "Point", "coordinates": [-115.16810444790545, 64.99181970979699]}}, {"type": "Feature", "properties": {"norad_id": 33773, "name": "IRIDIUM 33 DEB", "group": "iridium-33-debris", "lat": 57.00944277983088, "lon": -120.53748666968848, "alt_km": 737.9921201044499, "timestamp": "2025-12-02T06:27:53.396474+00:00", "meta": {"OBJECT_NAME": "IRIDIUM 33 DEB", "OBJECT_ID": "1997-051L", "EPOCH": "2025-12-01T18:14:57.759936", "MEAN_MOTION": 14.43214796, "ECCENTRICITY": 0.0011325, "INCLINATION": 86.4014, "RA_OF_ASC_NODE": 65.2411, "ARG_OF_PERICENTER": 180.4532, "MEAN_ANOMALY": 179.666, "EPHEMERIS_TYPE": 0, "CLASSIFICATION_TYPE": "U", "NORAD_CAT_ID": 33773, "ELEMENT_SET_NO": 999, "REV_AT_EPOCH": 88189, "BSTAR": 0.00036789, "MEAN_MOTION_DOT": 1.257e-05, "MEAN_MOTION_DDOT": 0}, "tle": {"line1": "1 33773U 97051L   25335.76039074  .00001257  00000+0  36789-3 0  9999", "line2": "2 33773  86.4014  65.2411 0011325 180.4532 179.6660 14.43214796881892"}}, "geometry": {"type": "Point", "coordinates": [-120.53748666968848, 57.00944277983088]}}, {"type": "Feature", "properties": {"norad_id": 33775, "name": "IRIDIUM 33 DEB", "group": "iridium-33-debris", "lat": -84.73688313989918, "lon": 10.376816229857608, "alt_km": 760.5231233082586, "timestamp": "2025-12-02T06:27:53.396488+00:00", "meta": {"OBJECT_NAME": "IRIDIUM 33 DEB", "OBJECT_ID": "1997-051N", "EPOCH": "2025-12-01T16:24:55.406304", "MEAN_MOTION": 14.41426994, "ECCENTRICITY": 0.0013021, "INCLINATION": 86.3644, "RA_OF_ASC_NODE": 54.2725, "ARG_OF_PERICENTER": 190.0986, "MEAN_ANOMALY": 287.8112, "EPHEMERIS_TYPE": 0, "CLASSIFICATION_TYPE": "U", "NORAD_CAT_ID": 33775, "ELEMENT_SET_NO": 999, "REV_AT_EPOCH": 87981, "BSTAR": 0.00037814, "MEAN_MOTION_DOT": 1.246e-05, "MEAN_MOTION_DDOT": 0}, "tle": {"line1": "1 33775U 97051N   25335.68397461  .00001246  00000+0  37814-3 0  9997", "line2": "2 33775  86.3644  54.2725 0013021 190.0986 287.8112 14.41426994879819"}}, "geometry": {"type": "Point", "coordinates": [10.376816229857608, -84.73688313989918]}}, {"type": "Feature", "properties": {"norad_id": 33776, "name": "IRIDIUM 33 DEB", "group": "iridium-33-debris", "lat": -83.91851574396787, "lon": -58.646802684537604, "alt_km": 764.4701646254262, "timestamp": "2025-12-02T06:27:53.396500+00:00", "meta": {"OBJECT_NAME": "IRIDIUM 33 DEB", "OBJECT_ID": "1997-051P", "EPOCH": "2025-12-01T19:44:54.326400", "MEAN_MOTION": 14.38199264, "ECCENTRICITY": 0.001323, "INCLINATION": 86.4034, "RA_OF_ASC_NODE": 85.3598, "ARG_OF_PERICENTER": 228.3938, "MEAN_ANOMALY": 246.2121, "EPHEMERIS_TYPE": 0, "CLASSIFICATION_TYPE": "U", "NORAD_CAT_ID": 33776, "ELEMENT_SET_NO": 999, "REV_AT_EPOCH": 87925, "BSTAR": 0.0003473, "MEAN_MOTION_DOT": 1.074e-05, "MEAN_MOTION_DDOT": 0}, "tle": {"line1": "1 33776U 97051P   25335.82285100  .00001074  00000+0  34730-3 0  9993", "line2": "2 33776  86.4034  85.3598 0013230 228.3938 246.2121 14.38199264879251"}}, "geometry": {"type": "Point", "coordinates": [-58.646802684537604, -83.91851574396787]}}, {"type": "Feature", "properties": {"norad_id": 33777, "name": "IRIDIUM 33 DEB", "group": "iridium-33-debris", "lat": 59.41852377098268, "lon": -146.39251478652312, "alt_km": 705.8594639952644, "timestamp": "2025-12-02T06:27:53.396512+00:00", "meta": {"OBJECT_NAME": "IRIDIUM 33 DEB", "OBJECT_ID": "1997-051Q", "EPOCH": "2025-12-01T16:42:48.787200", "MEAN_MOTION": 14.55473312, "ECCENTRICITY": 0.0005231, "INCLINATION": 86.3801, "RA_OF_ASC_NODE": 40.0059, "ARG_OF_PERICENTER": 300.7684, "MEAN_ANOMALY": 59.3008, "EPHEMERIS_TYPE": 0, "CLASSIFICATION_TYPE": "U", "NORAD_CAT_ID": 33777, "ELEMENT_SET_NO": 999, "REV_AT_EPOCH": 88373, "BSTAR": 0.00098036, "MEAN_MOTION_DOT": 4.284e-05, "MEAN_MOTION_DDOT": 0}, "tle": {"line1": "1 33777U 97051Q   25335.69639800  .00004284  00000+0  98036-3 0  9994", "line2": "2 33777  86.3801  40.0059 0005231 300.7684  59.3008 14.55473312883731"}}, "geometry": {"type": "Point", "coordinates": [-146.39251478652312, 59.41852377098268]}}, {"type": "Feature", "properties": {"norad_id": 33850, "name": "IRIDIUM 33 DEB", "group": "iridium-33-debris", "lat": -49.043935097685036, "lon": -141.09251719383298, "alt_km": 752.0436707498902, "timestamp": "2025-12-02T06:27:53.396523+00:00", "meta": {"OBJECT_NAME": "IRIDIUM 33 DEB", "OBJECT_ID": "1997-051T", "EPOCH": "2025-12-01T16:38:06.698112", "MEAN_MOTION": 14.42104741, "ECCENTRICITY": 0.0011043, "INCLINATION": 86.3426, "RA_OF_ASC_NODE": 34.9289, "ARG_OF_PERICENTER": 196.0534, "MEAN_ANOMALY": 283.302, "EPHEMERIS_TYPE": 0, "CLASSIFICATION_TYPE": "U", "NORAD_CAT_ID": 33850, "ELEMENT_SET_NO": 999, "REV_AT_EPOCH": 87993, "BSTAR": 0.00047773, "MEAN_MOTION_DOT": 1.59e-05, "MEAN_MOTION_DDOT": 0}, "tle": {"line1": "1 33850U 97051T   25335.69313308  .00001590  00000+0  47773-3 0  9997", "line2": "2 33850  86.3426  34.9289 0011043 196.0534 283.3020 14.42104741879934"}}, "geometry": {"type": "Point", "coordinates": [-141.09251719383298, -49.043935097685036]}}, {"type": "Feature", "properties": {"norad_id": 33853, "name": "IRIDIUM 33 DEB", "group": "iridium-33-debris", "lat": 74.8978598076871, "lon": 9.430183089268539, "alt_km": 1037.059619880949, "timestamp": "2025-12-02T06:27:53.396535+00:00", "meta": {"OBJECT_NAME": "IRIDIUM 33 DEB", "OBJECT_ID": "1997-051W", "EPOCH": "2025-12-01T13:32:50.951904", "MEAN_MOTION": 13.98940559, "ECCENTRICITY": 0.02068509, "INCLINATION": 86.0002, "RA_OF_ASC_NODE": 354.7122, "ARG_OF_PERICENTER": 270.3532, "MEAN_ANOMALY": 216.7696, "EPHEMERIS_TYPE": 0, "CLASSIFICATION_TYPE": "U", "NORAD_CAT_ID": 33853, "ELEMENT_SET_NO": 999, "REV_AT_EPOCH": 85189, "BSTAR": 0.0021815684, "MEAN_MOTION_DOT": 3.796e-05, "MEAN_MOTION_DDOT": 0}, "tle": {"line1": "1 33853U 97051W   25335.56447861  .00003796  00000+0  21816-2 0  9997", "line2": "2 33853  86.0002 354.7122 0206850 270.3532 216.7696 13.98940559851898"}}, "geometry": {"type": "Point", "coordinates": [9.430183089268539, 74.8978598076871]}}, {"type": "Feature", "properties": {"norad_id": 33860, "name": "IRIDIUM 33 DEB", "group": "iridium-33-debris", "lat": -62.87881396887517, "lon": 24.782033589118935, "alt_km": 678.0152801430977, "timestamp": "2025-12-02T06:27:53.396547+00:00", "meta": {"OBJECT_NAME": "IRIDIUM 33 DEB", "OBJECT_ID": "1997-051AD", "EPOCH": "2025-12-01T14:58:50.993184", "MEAN_MOTION": 14.67126108, "ECCENTRICITY": 0.00087844, "INCLINATION": 86.3853, "RA_OF_ASC_NODE": 32.1567, "ARG_OF_PERICENTER": 33.8534, "MEAN_ANOMALY": 97.8654, "EPHEMERIS_TYPE": 0, "CLASSIFICATION_TYPE": "U", "NORAD_CAT_ID": 33860, "ELEMENT_SET_NO": 999, "REV_AT_EPOCH": 88559, "BSTAR": 0.0012822025, "MEAN_MOTION_DOT": 7.23e-05, "MEAN_MOTION_DDOT": 0}, "tle": {"line1": "1 33860U 97051AD  25335.62420131  .00007230  00000+0  12822-2 0  9997", "line2": "2 33860  86.3853  32.1567 0008784  33.8534  97.8654 14.67126108885592"}}, "geometry": {"type": "Point", "coordinates": [24.782033589118935, -62.87881396887517]}}, {"type": "Feature", "properties": {"norad_id": 33862, "name": "IRIDIUM 33 DEB", "group": "iridium-33-debris", "lat": -73.99386655752056, "lon": -125.21385614952658, "alt_km": 704.1072075283582, "timestamp": "2025-12-02T06:27:53.396558+00:00", "meta": {"OBJECT_NAME": "IRIDIUM 33 DEB", "OBJECT_ID": "1997-051AF", "EPOCH": "2025-12-01T16:46:24.832992", "MEAN_MOTION": 14.69176898, "ECCENTRICITY": 0.0054068, "INCLINATION": 86.4104, "RA_OF_ASC_NODE": 42.397, "ARG_OF_PERICENTER": 106.0127, "MEAN_ANOMALY": 12.7609, "EPHEMERIS_TYPE": 0, "CLASSIFICATION_TYPE": "U", "NORAD_CAT_ID": 33862, "ELEMENT_SET_NO": 999, "REV_AT_EPOCH": 88661, "BSTAR": 0.0013912, "MEAN_MOTION_DOT": 8.398e-05, "MEAN_MOTION_DDOT": 0}, "tle": {"line1": "1 33862U 97051AF  25335.69889853  .00008398  00000+0  13912-2 0  9993", "line2": "2 33862  86.4104  42.3970 0054068 106.0127  12.7609 14.69176898886615"}}, "geometry": {"type": "Point", "coordinates": [-125.21385614952658, -73.99386655752056]}}, {"type": "Feature", "properties": {"norad_id": 33866, "name": "IRIDIUM 33 DEB", "group": "iridium-33-debris", "lat": 1.368390735059495, "lon": -82.62359508096911, "alt_km": 732.2565370404345, "timestamp": "2025-12-02T06:27:53.396569+00:00", "meta": {"OBJECT_NAME": "IRIDIUM 33 DEB", "OBJECT_ID": "1997-051AK", "EPOCH": "2025-12-01T18:31:19.752960", "MEAN_MOTION": 14.25209586, "ECCENTRICITY": 0.0113517, "INCLINATION": 86.2996, "RA_OF_ASC_NODE": 97.6755, "ARG_OF_PERICENTER": 196.403, "MEAN_ANOMALY": 310.9426, "EPHEMERIS_TYPE": 0, "CLASSIFICATION_TYPE": "U", "NORAD_CAT_ID": 33866, "ELEMENT_SET_NO": 999, "REV_AT_EPOCH": 86654, "BSTAR": 0.00069216, "MEAN_MOTION_DOT": 1.758e-05, "MEAN_MOTION_DDOT": 0}, "tle": {"line1": "1 33866U 97051AK  25335.77175640  .00001758  00000+0  69216-3 0  9990", "line2": "2 33866  86.2996  97.6755 0113517 196.4030 310.9426 14.25209586866544"}}, "geometry": {"type": "Point", "coordinates": [-82.62359508096911, 1.368390735059495]}}]}